CTC2_L_00536094-01
1 63775U 23853PP  26070.40850694  .00000000  00000+0  00000-0 0  9999
2 63775  97.6000 279.0000 0000000   0.0000 198.0000 15.05490646    19
CTC2_L_00536094-02
1 63776U 25804TF  26070.40850694  .00000000  00000+0  00000-0 0  9998
2 63776  97.6000 279.0000 0000000   0.0000  18.0000 15.05490646    11
CTC2_L_00536095-01
1 63777U 25523HL  26070.40850694  .00000000  00000+0  00000-0 0  9997
2 63777  97.6000 282.0000 0000000   0.0000 204.0000 15.05490646    13
CTC2_L_00536095-02
1 63778U 22655GI  26070.40850694  .00000000  00000+0  00000-0 0  9991
2 63778  97.6000 282.0000 0000000   0.0000  24.0000 15.05490646    14
CTC2_L_00536096-01
1 63779U 26301QK  26070.40850694  .00000000  00000+0  00000-0 0  9994
2 63779  97.6000 285.0000 0000000   0.0000 210.0000 15.05490646    15
CTC2_L_00536096-02
1 63780U 25989PY  26070.40850694  .00000000  00000+0  00000-0 0  9997
2 63780  97.6000 285.0000 0000000   0.0000  30.0000 15.05490646    17
CTC2_L_00536097-01
1 63781U 25022QL  26070.40850694  .00000000  00000+0  00000-0 0  9996
2 63781  97.6000 288.0000 0000000   0.0000 216.0000 15.05490646    17
CTC2_L_00536097-02
1 63782U 23183HR  26070.40850694  .00000000  00000+0  00000-0 0  9993
2 63782  97.6000 288.0000 0000000   0.0000  36.0000 15.05490646    18
CTC2_L_00536098-01
1 63783U 26561JN  26070.40850694  .00000000  00000+0  00000-0 0  9997
2 63783  97.6000 291.0000 0000000   0.0000 222.0000 15.05490646    10
CTC2_L_00536098-02
1 63784U 24164QX  26070.40850694  .00000000  00000+0  00000-0 0  9995
2 63784  97.6000 291.0000 0000000   0.0000  42.0000 15.05490646    11
CTC2_L_00536099-01
1 63785U 22680RO  26070.40850694  .00000000  00000+0  00000-0 0  9997
2 63785  97.6000 294.0000 0000000   0.0000 228.0000 15.05490646    11
CTC2_L_00536099-02
1 63786U 26443WU  26070.40850694  .00000000  00000+0  00000-0 0  9999
2 63786  97.6000 294.0000 0000000   0.0000  48.0000 15.05490646    12
CTC2_L_00536100-01
1 63787U 25621JS  26070.40850694  .00000000  00000+0  00000-0 0  9997
2 63787  97.6000 297.0000 0000000   0.0000 234.0000 15.05490646    13
CTC2_L_00536100-02
1 63788U 25814AF  26070.40850694  .00000000  00000+0  00000-0 0  9992
2 63788  97.6000 297.0000 0000000   0.0000  54.0000 15.05490646    14
CTC2_L_00536101-01
1 63789U 23574UG  26070.40850694  .00000000  00000+0  00000-0 0  9994
2 63789  97.6000 300.0000 0000000   0.0000 240.0000 15.05490646    17
CTC2_L_00536101-02
1 63790U 23428EV  26070.40850694  .00000000  00000+0  00000-0 0  9994
2 63790  97.6000 300.0000 0000000   0.0000  60.0000 15.05490646    19
CTC2_L_00536102-01
1 63791U 22322YJ  26070.40850694  .00000000  00000+0  00000-0 0  9997
2 63791  97.6000 303.0000 0000000   0.0000 246.0000 15.05490646    19
CTC2_L_00536102-02
1 63792U 23222VQ  26070.40850694  .00000000  00000+0  00000-0 0  9998
2 63792  97.6000 303.0000 0000000   0.0000  66.0000 15.05490646    10
CTC2_L_00536103-01
1 63793U 23669IZ  26070.40850694  .00000000  00000+0  00000-0 0  9994
2 63793  97.6000 306.0000 0000000   0.0000 252.0000 15.05490646    11
CTC2_L_00536103-02
1 63794U 25207NL  26070.40850694  .00000000  00000+0  00000-0 0  9995
2 63794  97.6000 306.0000 0000000   0.0000  72.0000 15.05490646    12
CTC2_L_00536104-01
1 63795U 25356ZL  26070.40850694  .00000000  00000+0  00000-0 0  9991
2 63795  97.6000 309.0000 0000000   0.0000 258.0000 15.05490646    12
CTC2_L_00536104-02
1 63796U 25208VE  26070.40850694  .00000000  00000+0  00000-0 0  9998
2 63796  97.6000 309.0000 0000000   0.0000  78.0000 15.05490646    13
CTC2_L_00536105-01
1 63797U 22286HK  26070.40850694  .00000000  00000+0  00000-0 0  9992
2 63797  97.6000 312.0000 0000000   0.0000 264.0000 15.05490646    15
CTC2_L_00536105-02
1 63798U 22918WW  26070.40850694  .00000000  00000+0  00000-0 0  9995
2 63798  97.6000 312.0000 0000000   0.0000  84.0000 15.05490646    16
CTC2_L_00536106-01
1 63799U 22367EW  26070.40850694  .00000000  00000+0  00000-0 0  9994
2 63799  97.6000 315.0000 0000000   0.0000 270.0000 15.05490646    17
CTC2_L_00536106-02
1 63800U 25019GR  26070.40850694  .00000000  00000+0  00000-0 0  9994
2 63800  97.6000 315.0000 0000000   0.0000  90.0000 15.05490646    10
CTC2_L_00536107-01
1 63801U 26441UY  26070.40850694  .00000000  00000+0  00000-0 0  9995
2 63801  97.6000 318.0000 0000000   0.0000 276.0000 15.05490646    10
CTC2_L_00536107-02
1 63802U 23048LO  26070.40850694  .00000000  00000+0  00000-0 0  9996
2 63802  97.6000 318.0000 0000000   0.0000  96.0000 15.05490646    11
CTC2_L_00536108-01
1 63803U 26177PR  26070.40850694  .00000000  00000+0  00000-0 0  9993
2 63803  97.6000 321.0000 0000000   0.0000 282.0000 15.05490646    13
CTC2_L_00536108-02
1 63804U 23754XI  26070.40850694  .00000000  00000+0  00000-0 0  9992
2 63804  97.6000 321.0000 0000000   0.0000 102.0000 15.05490646    15
CTC2_L_00536109-01
1 63805U 25168PL  26070.40850694  .00000000  00000+0  00000-0 0  9994
2 63805  97.6000 324.0000 0000000   0.0000 288.0000 15.05490646    14
CTC2_L_00536109-02
1 63806U 23977LN  26070.40850694  .00000000  00000+0  00000-0 0  9991
2 63806  97.6000 324.0000 0000000   0.0000 108.0000 15.05490646    16
CTC2_L_00536110-01
1 63807U 24697IB  26070.40850694  .00000000  00000+0  00000-0 0  9992
2 63807  97.6000 327.0000 0000000   0.0000 294.0000 15.05490646    16
CTC2_L_00536110-02
1 63808U 23415XN  26070.40850694  .00000000  00000+0  00000-0 0  9990
2 63808  97.6000 327.0000 0000000   0.0000 114.0000 15.05490646    18
CTC2_L_00536111-01
1 63809U 24628GA  26070.40850694  .00000000  00000+0  00000-0 0  9998
2 63809  97.6000 330.0000 0000000   0.0000 300.0000 15.05490646    10
CTC2_L_00536111-02
1 63810U 24039RA  26070.40850694  .00000000  00000+0  00000-0 0  9996
2 63810  97.6000 330.0000 0000000   0.0000 120.0000 15.05490646    12
CTC2_L_00536112-01
1 63811U 23959EZ  26070.40850694  .00000000  00000+0  00000-0 0  9997
2 63811  97.6000 333.0000 0000000   0.0000 306.0000 15.05490646    12
CTC2_L_00536112-02
1 63812U 22942YJ  26070.40850694  .00000000  00000+0  00000-0 0  9999
2 63812  97.6000 333.0000 0000000   0.0000 126.0000 15.05490646    13
CTC2_L_00536113-01
1 63813U 26118MH  26070.40850694  .00000000  00000+0  00000-0 0  9999
2 63813  97.6000 336.0000 0000000   0.0000 312.0000 15.05490646    14
CTC2_L_00536113-02
1 63814U 26522PS  26070.40850694  .00000000  00000+0  00000-0 0  9999
2 63814  97.6000 336.0000 0000000   0.0000 132.0000 15.05490646    15
CTC2_L_00536114-01
1 63815U 24053EA  26070.40850694  .00000000  00000+0  00000-0 0  9997
2 63815  97.6000 339.0000 0000000   0.0000 318.0000 15.05490646    15
CTC2_L_00536114-02
1 63816U 23503HC  26070.40850694  .00000000  00000+0  00000-0 0  9997
2 63816  97.6000 339.0000 0000000   0.0000 138.0000 15.05490646    16
CTC2_L_00536115-01
1 63817U 23076YN  26070.40850694  .00000000  00000+0  00000-0 0  9993
2 63817  97.6000 342.0000 0000000   0.0000 324.0000 15.05490646    18
CTC2_L_00536115-02
1 63818U 25956YF  26070.40850694  .00000000  00000+0  00000-0 0  9993
2 63818  97.6000 342.0000 0000000   0.0000 144.0000 15.05490646    19
CTC2_L_00536116-01
1 63819U 23164XD  26070.40850694  .00000000  00000+0  00000-0 0  9993
2 63819  97.6000 345.0000 0000000   0.0000 330.0000 15.05490646    10
CTC2_L_00536116-02
1 63820U 25453LZ  26070.40850694  .00000000  00000+0  00000-0 0  9998
2 63820  97.6000 345.0000 0000000   0.0000 150.0000 15.05490646    12
CTC2_L_00536117-01
1 63821U 26725LW  26070.40850694  .00000000  00000+0  00000-0 0  9992
2 63821  97.6000 348.0000 0000000   0.0000 336.0000 15.05490646    12
CTC2_L_00536117-02
1 63822U 22548GM  26070.40850694  .00000000  00000+0  00000-0 0  9992
2 63822  97.6000 348.0000 0000000   0.0000 156.0000 15.05490646    13
CTC2_L_00536118-01
1 63823U 24566IJ  26070.40850694  .00000000  00000+0  00000-0 0  9995
2 63823  97.6000 351.0000 0000000   0.0000 342.0000 15.05490646    15
CTC2_L_00536118-02
1 63824U 24571KQ  26070.40850694  .00000000  00000+0  00000-0 0  9992
2 63824  97.6000 351.0000 0000000   0.0000 162.0000 15.05490646    16
CTC2_L_00536119-01
1 63825U 22779XT  26070.40850694  .00000000  00000+0  00000-0 0  9991
2 63825  97.6000 354.0000 0000000   0.0000 348.0000 15.05490646    16
CTC2_L_00536119-02
1 63826U 23085ER  26070.40850694  .00000000  00000+0  00000-0 0  9993
2 63826  97.6000 354.0000 0000000   0.0000 168.0000 15.05490646    17
CTC2_L_00536120-01
1 63827U 24735JZ  26070.40850694  .00000000  00000+0  00000-0 0  9997
2 63827  97.6000 357.0000 0000000   0.0000 354.0000 15.05490646    18
CTC2_L_00536120-02
1 63828U 24963JR  26070.40850694  .00000000  00000+0  00000-0 0  9991
2 63828  97.6000 357.0000 0000000   0.0000 174.0000 15.05490646    19
